[{"OBJECT_NAME":"STARLINK-34049","OBJECT_ID":"2025-102W","EPOCH":"2026-03-09T12:40:44.661216","MEAN_MOTION":14.98327398,"ECCENTRICITY":0.00034015,"INCLINATION":70.0009,"RA_OF_ASC_NODE":115.0399,"ARG_OF_PERICENTER":268.4205,"MEAN_ANOMALY":91.6564,"EPHEMERIS_TYPE":0,"CLASSIFICATION_TYPE":"U","NORAD_CAT_ID":64042,"ELEMENT_SET_NO":999,"REV_AT_EPOCH":4592,"BSTAR":0.00010151791,"MEAN_MOTION_DOT":1.118e-5,"MEAN_MOTION_DDOT":0},{"OBJECT_NAME":"FENGYUN 1C DEB","OBJECT_ID":"1999-025AEY","EPOCH":"2026-03-09T19:16:38.619264","MEAN_MOTION":14.92699645,"ECCENTRICITY":0.00328142,"INCLINATION":98.9116,"RA_OF_ASC_NODE":104.6855,"ARG_OF_PERICENTER":181.0852,"MEAN_ANOMALY":235.9591,"EPHEMERIS_TYPE":0,"CLASSIFICATION_TYPE":"U","NORAD_CAT_ID":30437,"ELEMENT_SET_NO":999,"REV_AT_EPOCH":482,"BSTAR":0.0024447577,"MEAN_MOTION_DOT":0.00025496,"MEAN_MOTION_DDOT":0}]
